start=new Date('2023-06-04T00:00:00.000Z').valueOf();
sats=[{"RCS_SIZE":"LARGE","MEAN_ELEMENT_THEORY":"SGP4","CLASSIFICATION_TYPE":"U","ARG_OF_PERICENTER":"89.6775","APOAPSIS":"539.996","MEAN_ANOMALY":"270.4288","NORAD_CAT_ID":"53184","EPHEMERIS_TYPE":"0","OBJECT_ID":"2022-083BE","BSTAR":"-0.00067923000000","DECAY_DATE":null,"MEAN_MOTION":"15.08899069","PERIOD":"95.434","REF_FRAME":"TEME","GP_ID":"233144436","FILE":"3924324","OBJECT_TYPE":"PAYLOAD","RA_OF_ASC_NODE":"337.3869","OBJECT_NAME":"STARLINK-4257","SEMIMAJOR_AXIS":"6917.700","LAUNCH_DATE":"2022-07-17","TIME_SYSTEM":"UTC","MEAN_MOTION_DDOT":"0.0000000000000","CENTER_NAME":"EARTH","MEAN_MOTION_DOT":"-0.00011099","REV_AT_EPOCH":"4946","SITE":"AFETR","PERIAPSIS":"539.134","EPOCH":"2023-06-03T18:37:00.729696","TLE_LINE1":"1 53184U 22083BE  23154.77570289 -.00011099  00000-0 -67923-3 0  9998","TLE_LINE2":"2 53184  53.2164 337.3869 0000623  89.6775 270.4288 15.08899069 49465","INCLINATION":"53.2164","ECCENTRICITY":"0.00006230","ELEMENT_SET_NO":"999","COUNTRY_CODE":"US"},{"MEAN_ELEMENT_THEORY":"SGP4","RCS_SIZE":"LARGE","ARG_OF_PERICENTER":"181.9158","CLASSIFICATION_TYPE":"U","MEAN_ANOMALY":"178.2053","NORAD_CAT_ID":"53189","EPHEMERIS_TYPE":"0","BSTAR":"-0.00221690000000","OBJECT_ID":"2022-084A","APOAPSIS":"566.281","OBJECT_TYPE":"PAYLOAD","FILE":"3924324","DECAY_DATE":null,"MEAN_MOTION":"15.01029433","PERIOD":"95.934","REF_FRAME":"TEME","GP_ID":"233145187","RA_OF_ASC_NODE":"215.9918","OBJECT_NAME":"STARLINK-4391","SEMIMAJOR_AXIS":"6941.858","MEAN_MOTION_DOT":"-0.00028253","SITE":"AFWTR","REV_AT_EPOCH":"4846","TIME_SYSTEM":"UTC","LAUNCH_DATE":"2022-07-22","CENTER_NAME":"EARTH","MEAN_MOTION_DDOT":"0.0000000000000","INCLINATION":"97.6566","ECCENTRICITY":"0.00036860","ELEMENT_SET_NO":"999","COUNTRY_CODE":"US","EPOCH":"2023-06-03T17:32:59.124768","PERIAPSIS":"561.164","TLE_LINE1":"1 53189U 22084A   23154.73123987 -.00028253  00000-0 -22169-2 0  9991","TLE_LINE2":"2 53189  97.6566 215.9918 0003686 181.9158 178.2053 15.01029433 48464"},{"CLASSIFICATION_TYPE":"U","ARG_OF_PERICENTER":"100.0212","RCS_SIZE":"LARGE","MEAN_ELEMENT_THEORY":"SGP4","GP_ID":"233143935","REF_FRAME":"TEME","PERIOD":"95.919","DECAY_DATE":null,"MEAN_MOTION":"15.01260539","OBJECT_TYPE":"PAYLOAD","FILE":"3924324","APOAPSIS":"564.247","OBJECT_ID":"2022-084B","BSTAR":"0.00005805400000","EPHEMERIS_TYPE":"0","NORAD_CAT_ID":"53190","MEAN_ANOMALY":"260.1214","SEMIMAJOR_AXIS":"6941.145","OBJECT_NAME":"STARLINK-4332","RA_OF_ASC_NODE":"216.1512","TLE_LINE1":"1 53190U 22084B   23154.89765286  .00000687  00000-0  58054-4 0  9997","TLE_LINE2":"2 53190  97.6543 216.1512 0001782 100.0212 260.1214 15.01260539 48488","EPOCH":"2023-06-03T21:32:37.207104","PERIAPSIS":"561.773","COUNTRY_CODE":"US","ELEMENT_SET_NO":"999","ECCENTRICITY":"0.00017820","INCLINATION":"97.6543","CENTER_NAME":"EARTH","MEAN_MOTION_DDOT":"0.0000000000000","TIME_SYSTEM":"UTC","LAUNCH_DATE":"2022-07-22","REV_AT_EPOCH":"4848","SITE":"AFWTR","MEAN_MOTION_DOT":"0.00000687"},{"SEMIMAJOR_AXIS":"6941.148","OBJECT_NAME":"STARLINK-4369","RA_OF_ASC_NODE":"215.9933","COUNTRY_CODE":"US","ELEMENT_SET_NO":"999","ECCENTRICITY":"0.00032300","INCLINATION":"97.6582","TLE_LINE1":"1 53191U 22084C   23154.72546608  .00001156  00000-0  94597-4 0  9999","TLE_LINE2":"2 53191  97.6582 215.9933 0003230 156.8938 203.2432 15.01259749 47783","PERIAPSIS":"560.771","EPOCH":"2023-06-03T17:24:40.269312","REV_AT_EPOCH":"4778","SITE":"AFWTR","MEAN_MOTION_DOT":"0.00001156","CENTER_NAME":"EARTH","MEAN_MOTION_DDOT":"0.0000000000000","LAUNCH_DATE":"2022-07-22","TIME_SYSTEM":"UTC","ARG_OF_PERICENTER":"156.8938","CLASSIFICATION_TYPE":"U","MEAN_ELEMENT_THEORY":"SGP4","RCS_SIZE":"LARGE","FILE":"3924324","OBJECT_TYPE":"PAYLOAD","GP_ID":"233143685","REF_FRAME":"TEME","PERIOD":"95.919","MEAN_MOTION":"15.01259749","DECAY_DATE":null,"BSTAR":"0.00009459700000","OBJECT_ID":"2022-084C","EPHEMERIS_TYPE":"0","NORAD_CAT_ID":"53191","MEAN_ANOMALY":"203.2432","APOAPSIS":"565.255"},{"ARG_OF_PERICENTER":"170.5765","CLASSIFICATION_TYPE":"U","MEAN_ELEMENT_THEORY":"SGP4","RCS_SIZE":"LARGE","OBJECT_TYPE":"PAYLOAD","FILE":"3924324","GP_ID":"233144937","PERIOD":"95.919","REF_FRAME":"TEME","MEAN_MOTION":"15.01261044","DECAY_DATE":null,"OBJECT_ID":"2022-084D","BSTAR":"0.00006751500000","EPHEMERIS_TYPE":"0","NORAD_CAT_ID":"53192","MEAN_ANOMALY":"189.5503","APOAPSIS":"564.613","SEMIMAJOR_AXIS":"6941.144","OBJECT_NAME":"STARLINK-4375","RA_OF_ASC_NODE":"215.9945","COUNTRY_CODE":"US","ELEMENT_SET_NO":"999","ECCENTRICITY":"0.00023120","INCLINATION":"97.6576","TLE_LINE1":"1 53192U 22084D   23154.72361329  .00000808  00000-0  67515-4 0  9998","TLE_LINE2":"2 53192  97.6576 215.9945 0002312 170.5765 189.5503 15.01261044 48452","EPOCH":"2023-06-03T17:22:00.188256","PERIAPSIS":"561.404","SITE":"AFWTR","REV_AT_EPOCH":"4845","MEAN_MOTION_DOT":"0.00000808","MEAN_MOTION_DDOT":"0.0000000000000","CENTER_NAME":"EARTH","LAUNCH_DATE":"2022-07-22","TIME_SYSTEM":"UTC"},{"APOAPSIS":"566.068","BSTAR":"0.00010592000000","OBJECT_ID":"2022-084E","EPHEMERIS_TYPE":"0","NORAD_CAT_ID":"53193","MEAN_ANOMALY":"185.8540","GP_ID":"233144687","PERIOD":"95.919","REF_FRAME":"TEME","MEAN_MOTION":"15.01259381","DECAY_DATE":null,"FILE":"3924324","OBJECT_TYPE":"PAYLOAD","RCS_SIZE":"LARGE","MEAN_ELEMENT_THEORY":"SGP4","CLASSIFICATION_TYPE":"U","ARG_OF_PERICENTER":"174.2735","MEAN_MOTION_DDOT":"0.0000000000000","CENTER_NAME":"EARTH","TIME_SYSTEM":"UTC","LAUNCH_DATE":"2022-07-22","SITE":"AFWTR","REV_AT_EPOCH":"4880","MEAN_MOTION_DOT":"0.00001302","TLE_LINE1":"1 53193U 22084E   23154.72916765  .00001302  00000-0  10592-3 0  9991","TLE_LINE2":"2 53193  97.6571 215.9922 0004400 174.2735 185.8540 15.01259381 48801","PERIAPSIS":"559.960","EPOCH":"2023-06-03T17:30:00.084960","COUNTRY_CODE":"US","ELEMENT_SET_NO":"999","ECCENTRICITY":"0.00044000","INCLINATION":"97.6571","SEMIMAJOR_AXIS":"6941.149","OBJECT_NAME":"STARLINK-4351","RA_OF_ASC_NODE":"215.9922"},{"ARG_OF_PERICENTER":"169.6505","CLASSIFICATION_TYPE":"U","MEAN_ELEMENT_THEORY":"SGP4","RCS_SIZE":"LARGE","FILE":"3924324","OBJECT_TYPE":"PAYLOAD","REF_FRAME":"TEME","PERIOD":"95.919","MEAN_MOTION":"15.01261255","DECAY_DATE":null,"GP_ID":"233143435","NORAD_CAT_ID":"53194","MEAN_ANOMALY":"190.4795","BSTAR":"0.00009124400000","OBJECT_ID":"2022-084F","EPHEMERIS_TYPE":"0","APOAPSIS":"565.554","OBJECT_NAME":"STARLINK-4382","RA_OF_ASC_NODE":"215.9928","SEMIMAJOR_AXIS":"6941.143","ECCENTRICITY":"0.00036680","INCLINATION":"97.6587","COUNTRY_CODE":"US","ELEMENT_SET_NO":"999","TLE_LINE1":"1 53194U 22084F   23154.72731693  .00001113  00000-0  91244-4 0  9991","TLE_LINE2":"2 53194  97.6587 215.9928 0003668 169.6505 190.4795 15.01261255 47786","EPOCH":"2023-06-03T17:27:20.182752","PERIAPSIS":"560.462","MEAN_MOTION_DOT":"0.00001113","REV_AT_EPOCH":"4778","SITE":"AFWTR","LAUNCH_DATE":"2022-07-22","TIME_SYSTEM":"UTC","CENTER_NAME":"EARTH","MEAN_MOTION_DDOT":"0.0000000000000"},{"TLE_LINE2":"2 53195  97.6574 216.0041 0001751 101.3250 258.8172 15.02071973 48452","TLE_LINE1":"1 53195U 22084G   23154.71476107  .00001408  00000-0  11185-3 0  9999","EPOCH":"2023-06-03T17:09:15.356448","PERIAPSIS":"559.295","COUNTRY_CODE":"US","ELEMENT_SET_NO":"999","ECCENTRICITY":"0.00017510","INCLINATION":"97.6574","MEAN_MOTION_DDOT":"0.0000000000000","CENTER_NAME":"EARTH","TIME_SYSTEM":"UTC","LAUNCH_DATE":"2022-07-22","REV_AT_EPOCH":"4845","SITE":"AFWTR","MEAN_MOTION_DOT":"0.00001408","SEMIMAJOR_AXIS":"6938.645","OBJECT_NAME":"STARLINK-4404","RA_OF_ASC_NODE":"216.0041","GP_ID":"233144186","PERIOD":"95.868","REF_FRAME":"TEME","MEAN_MOTION":"15.02071973","DECAY_DATE":null,"OBJECT_TYPE":"PAYLOAD","FILE":"3924324","APOAPSIS":"561.725","BSTAR":"0.00011185000000","OBJECT_ID":"2022-084G","EPHEMERIS_TYPE":"0","NORAD_CAT_ID":"53195","MEAN_ANOMALY":"258.8172","CLASSIFICATION_TYPE":"U","ARG_OF_PERICENTER":"101.3250","RCS_SIZE":"LARGE","MEAN_ELEMENT_THEORY":"SGP4"},{"MEAN_MOTION_DDOT":"0.0000000000000","CENTER_NAME":"EARTH","TIME_SYSTEM":"UTC","LAUNCH_DATE":"2022-07-22","SITE":"AFWTR","REV_AT_EPOCH":"4844","MEAN_MOTION_DOT":"0.00000923","EPOCH":"2023-06-03T17:11:55.237056","PERIAPSIS":"559.331","TLE_LINE2":"2 53196  97.6593 215.9960 0001701 106.3644 253.7768 15.02071731 48445","TLE_LINE1":"1 53196U 22084H   23154.71661154  .00000923  00000-0  74838-4 0  9994","ELEMENT_SET_NO":"999","COUNTRY_CODE":"US","INCLINATION":"97.6593","ECCENTRICITY":"0.00017010","SEMIMAJOR_AXIS":"6938.646","RA_OF_ASC_NODE":"215.9960","OBJECT_NAME":"STARLINK-4407","APOAPSIS":"561.691","EPHEMERIS_TYPE":"0","BSTAR":"0.00007483800000","OBJECT_ID":"2022-084H","MEAN_ANOMALY":"253.7768","NORAD_CAT_ID":"53196","GP_ID":"233144437","DECAY_DATE":null,"MEAN_MOTION":"15.02071731","REF_FRAME":"TEME","PERIOD":"95.868","OBJECT_TYPE":"PAYLOAD","FILE":"3924324","RCS_SIZE":"LARGE","MEAN_ELEMENT_THEORY":"SGP4","CLASSIFICATION_TYPE":"U","ARG_OF_PERICENTER":"106.3644"},{"BSTAR":"0.00009684400000","OBJECT_ID":"2022-084J","EPHEMERIS_TYPE":"0","NORAD_CAT_ID":"53197","MEAN_ANOMALY":"206.5050","APOAPSIS":"564.171","OBJECT_TYPE":"PAYLOAD","FILE":"3924324","GP_ID":"233145188","PERIOD":"95.919","REF_FRAME":"TEME","MEAN_MOTION":"15.01259498","DECAY_DATE":null,"MEAN_ELEMENT_THEORY":"SGP4","RCS_SIZE":"LARGE","ARG_OF_PERICENTER":"153.6259","CLASSIFICATION_TYPE":"U","REV_AT_EPOCH":"4778","SITE":"AFWTR","MEAN_MOTION_DOT":"0.00001185","CENTER_NAME":"EARTH","MEAN_MOTION_DDOT":"0.0000000000000","TIME_SYSTEM":"UTC","LAUNCH_DATE":"2022-07-22","COUNTRY_CODE":"US","ELEMENT_SET_NO":"999","ECCENTRICITY":"0.00016680","INCLINATION":"97.6566","TLE_LINE1":"1 53197U 22084J   23154.71805977  .00001185  00000-0  96844-4 0  9990","TLE_LINE2":"2 53197  97.6566 215.9934 0001668 153.6259 206.5050 15.01259498 47789","EPOCH":"2023-06-03T17:14:00.364128","PERIAPSIS":"561.856","SEMIMAJOR_AXIS":"6941.148","OBJECT_NAME":"STARLINK-4403","RA_OF_ASC_NODE":"215.9934"}];
